{
  "type": "FeatureCollection",
  "features": [
    {
      "type": "Feature",
      "properties": {
        "norad_id": 63632,
        "name": "SHENZHOU-20 (SZ-20)",
        "group": "stations",
        "lat": -36.188053220177714,
        "lon": -70.14322287140072,
        "alt_km": 395.05605895473855,
        "timestamp": "2025-12-06T14:35:35.929457+00:00",
        "meta_object_name": "SHENZHOU-20 (SZ-20)",
        "meta_object_id": "2025-082A",
        "meta_epoch": "2025-12-06T05:51:59.537376",
        "meta_mean_motion": 15.58781586,
        "meta_eccentricity": 0.00096041,
        "meta_inclination": 41.4683,
        "meta_ra_of_asc_node": 56.1283,
        "meta_arg_of_pericenter": 339.9163,
        "meta_mean_anomaly": 20.1296,
        "meta_ephemeris_type": 0,
        "meta_classification_type": "U",
        "meta_norad_cat_id": 63632,
        "meta_element_set_no": 999,
        "meta_rev_at_epoch": 25530,
        "meta_bstar": 0.00042196391,
        "meta_mean_motion_dot": 0.00033378,
        "meta_mean_motion_ddot": 0,
        "tle_line1": "1 63632U 25082A   25340.24443909  .00033378  00000+0  42196-3 0  9994",
        "tle_line2": "2 63632  41.4683  56.1283 0009604 339.9163  20.1296 15.58781586255305"
      },
      "geometry": {
        "type": "Point",
        "coordinates": [
          -70.14322287140072,
          -36.188053220177714
        ]
      }
    },
    {
      "type": "Feature",
      "properties": {
        "norad_id": 64751,
        "name": "PROGRESS-MS 31",
        "group": "stations",
        "lat": 2.721216996436795,
        "lon": 174.99488955668394,
        "alt_km": 421.10355512530805,
        "timestamp": "2025-12-06T14:35:35.929467+00:00",
        "meta_object_name": "PROGRESS-MS 31",
        "meta_object_id": "2025-146A",
        "meta_epoch": "2025-12-06T00:38:46.837536",
        "meta_mean_motion": 15.49350538,
        "meta_eccentricity": 0.00036145,
        "meta_inclination": 51.6296,
        "meta_ra_of_asc_node": 175.7148,
        "meta_arg_of_pericenter": 210.2448,
        "meta_mean_anomaly": 149.8333,
        "meta_ephemeris_type": 0,
        "meta_classification_type": "U",
        "meta_norad_cat_id": 64751,
        "meta_element_set_no": 999,
        "meta_rev_at_epoch": 675,
        "meta_bstar": 0.00025885847,
        "meta_mean_motion_dot": 0.00014013,
        "meta_mean_motion_ddot": 0,
        "tle_line1": "1 64751U 25146A   25340.02693099  .00014013  00000+0  25886-3 0  9993",
        "tle_line2": "2 64751  51.6296 175.7148 0003614 210.2448 149.8333 15.49350538  6754"
      },
      "geometry": {
        "type": "Point",
        "coordinates": [
          174.99488955668394,
          2.721216996436795
        ]
      }
    },
    {
      "type": "Feature",
      "properties": {
        "norad_id": 64786,
        "name": "TIANZHOU-9",
        "group": "stations",
        "lat": -36.18805372569845,
        "lon": -70.1432213039403,
        "alt_km": 395.05605882812506,
        "timestamp": "2025-12-06T14:35:35.929478+00:00",
        "meta_object_name": "TIANZHOU-9",
        "meta_object_id": "2025-149A",
        "meta_epoch": "2025-12-06T05:51:59.537376",
        "meta_mean_motion": 15.58781586,
        "meta_eccentricity": 0.00096041,
        "meta_inclination": 41.4683,
        "meta_ra_of_asc_node": 56.1283,
        "meta_arg_of_pericenter": 339.9163,
        "meta_mean_anomaly": 20.1296,
        "meta_ephemeris_type": 0,
        "meta_classification_type": "U",
        "meta_norad_cat_id": 64786,
        "meta_element_set_no": 999,
        "meta_rev_at_epoch": 25530,
        "meta_bstar": 0.00042196391,
        "meta_mean_motion_dot": 0.00033378,
        "meta_mean_motion_ddot": 0,
        "tle_line1": "1 64786U 25149A   25340.24443909  .00033378  00000+0  42196-3 0  9999",
        "tle_line2": "2 64786  41.4683  56.1283 0009604 339.9163  20.1296 15.58781586255306"
      },
      "geometry": {
        "type": "Point",
        "coordinates": [
          -70.1432213039403,
          -36.18805372569845
        ]
      }
    },
    {
      "type": "Feature",
      "properties": {
        "norad_id": 65077,
        "name": "CREW DRAGON 11",
        "group": "stations",
        "lat": 2.721218058573195,
        "lon": 174.99489039952738,
        "alt_km": 421.1035550091701,
        "timestamp": "2025-12-06T14:35:35.929488+00:00",
        "meta_object_name": "CREW DRAGON 11",
        "meta_object_id": "2025-166A",
        "meta_epoch": "2025-12-06T00:38:46.837536",
        "meta_mean_motion": 15.49350538,
        "meta_eccentricity": 0.00036145,
        "meta_inclination": 51.6296,
        "meta_ra_of_asc_node": 175.7148,
        "meta_arg_of_pericenter": 210.2448,
        "meta_mean_anomaly": 149.8333,
        "meta_ephemeris_type": 0,
        "meta_classification_type": "U",
        "meta_norad_cat_id": 65077,
        "meta_element_set_no": 999,
        "meta_rev_at_epoch": 214,
        "meta_bstar": 0.00025885847,
        "meta_mean_motion_dot": 0.00014013,
        "meta_mean_motion_ddot": 0,
        "tle_line1": "1 65077U 25166A   25340.02693099  .00014013  00000+0  25886-3 0  9997",
        "tle_line2": "2 65077  51.6296 175.7148 0003614 210.2448 149.8333 15.49350538  2145"
      },
      "geometry": {
        "type": "Point",
        "coordinates": [
          174.99489039952738,
          2.721218058573195
        ]
      }
    },
    {
      "type": "Feature",
      "properties": {
        "norad_id": 65304,
        "name": "DRAGON CRS-33",
        "group": "stations",
        "lat": 2.721218564352019,
        "lon": 174.99489080088114,
        "alt_km": 421.1035549538665,
        "timestamp": "2025-12-06T14:35:35.929498+00:00",
        "meta_object_name": "DRAGON CRS-33",
        "meta_object_id": "2025-186A",
        "meta_epoch": "2025-12-06T00:38:46.837536",
        "meta_mean_motion": 15.49350538,
        "meta_eccentricity": 0.00036145,
        "meta_inclination": 51.6296,
        "meta_ra_of_asc_node": 175.7148,
        "meta_arg_of_pericenter": 210.2448,
        "meta_mean_anomaly": 149.8333,
        "meta_ephemeris_type": 0,
        "meta_classification_type": "U",
        "meta_norad_cat_id": 65304,
        "meta_element_set_no": 999,
        "meta_rev_at_epoch": 11,
        "meta_bstar": 0.00025885847,
        "meta_mean_motion_dot": 0.00014013,
        "meta_mean_motion_ddot": 0,
        "tle_line1": "1 65304U 25186A   25340.02693099  .00014013  00000+0  25886-3 0  9992",
        "tle_line2": "2 65304  51.6296 175.7148 0003614 210.2448 149.8333 15.49350538   113"
      },
      "geometry": {
        "type": "Point",
        "coordinates": [
          174.99489080088114,
          2.721218564352019
        ]
      }
    },
    {
      "type": "Feature",
      "properties": {
        "norad_id": 65586,
        "name": "PROGRESS-MS 32",
        "group": "stations",
        "lat": 2.7212190701308607,
        "lon": 174.99489120223484,
        "alt_km": 421.10355489856465,
        "timestamp": "2025-12-06T14:35:35.929508+00:00",
        "meta_object_name": "PROGRESS-MS 32",
        "meta_object_id": "2025-204A",
        "meta_epoch": "2025-12-06T00:38:46.837536",
        "meta_mean_motion": 15.49350538,
        "meta_eccentricity": 0.00036145,
        "meta_inclination": 51.6296,
        "meta_ra_of_asc_node": 175.7148,
        "meta_arg_of_pericenter": 210.2448,
        "meta_mean_anomaly": 149.8333,
        "meta_ephemeris_type": 0,
        "meta_classification_type": "U",
        "meta_norad_cat_id": 65586,
        "meta_element_set_no": 999,
        "meta_rev_at_epoch": 27,
        "meta_bstar": 0.00025885847,
        "meta_mean_motion_dot": 0.00014013,
        "meta_mean_motion_ddot": 0,
        "tle_line1": "1 65586U 25204A   25340.02693099  .00014013  00000+0  25886-3 0  9995",
        "tle_line2": "2 65586  51.6296 175.7148 0003614 210.2448 149.8333 15.49350538   272"
      },
      "geometry": {
        "type": "Point",
        "coordinates": [
          174.99489120223484,
          2.7212190701308607
        ]
      }
    },
    {
      "type": "Feature",
      "properties": {
        "norad_id": 65616,
        "name": "CYGNUS NG-23",
        "group": "stations",
        "lat": 2.721219626488398,
        "lon": 174.99489164372457,
        "alt_km": 421.10355483772673,
        "timestamp": "2025-12-06T14:35:35.929519+00:00",
        "meta_object_name": "CYGNUS NG-23",
        "meta_object_id": "2025-208A",
        "meta_epoch": "2025-12-06T00:38:46.837536",
        "meta_mean_motion": 15.49350538,
        "meta_eccentricity": 0.00036145,
        "meta_inclination": 51.6296,
        "meta_ra_of_asc_node": 175.7148,
        "meta_arg_of_pericenter": 210.2448,
        "meta_mean_anomaly": 149.8333,
        "meta_ephemeris_type": 0,
        "meta_classification_type": "U",
        "meta_norad_cat_id": 65616,
        "meta_element_set_no": 999,
        "meta_rev_at_epoch": 22,
        "meta_bstar": 0.00025885847,
        "meta_mean_motion_dot": 0.00014013,
        "meta_mean_motion_ddot": 0,
        "tle_line1": "1 65616U 25208A   25340.02693099  .00014013  00000+0  25886-3 0  9993",
        "tle_line2": "2 65616  51.6296 175.7148 0003614 210.2448 149.8333 15.49350538   221"
      },
      "geometry": {
        "type": "Point",
        "coordinates": [
          174.99489164372457,
          2.721219626488398
        ]
      }
    }
  ]
}